OBJECT_NAME,OBJECT_ID,EPOCH,MEAN_MOTION,ECCENTRICITY,INCLINATION,RA_OF_ASC_NODE,ARG_OF_PERICENTER,MEAN_ANOMALY,EPHEMERIS_TYPE,CLASSIFICATION_TYPE,NORAD_CAT_ID,ELEMENT_SET_NO,REV_AT_EPOCH,BSTAR,MEAN_MOTION_DOT,MEAN_MOTION_DDOT
STARLINK-11718 [DTC],2025-111K,2026-07-16T15:00:28.469664,15.70849172,.00023985,43.0027,276.9960,269.2577,90.8015,0,U,64132,999,6696,.79230761E-3,.102523E-2,0
STARLINK-11716 [DTC],2025-111L,2026-07-16T05:42:09.470304,15.70938345,.00011972,43.0000,279.2481,144.1806,215.9142,0,U,64133,999,6690,.77508445E-3,.100632E-2,0
STARLINK-11714 [DTC],2025-111M,2026-07-16T13:42:42.613920,15.70832179,.00019629,42.9991,276.5616,282.9933,77.0715,0,U,64134,999,6691,.79686819E-3,.103045E-2,0
STARLINK-11712 [DTC],2025-111N,2026-07-16T13:35:15.174240,15.70834966,.00014334,42.9993,277.4144,274.5519,85.5185,0,U,64135,999,6690,.91994278E-3,.119275E-2,0
STARLINK-34254,2025-111P,2026-07-15T02:32:31.805952,15.27591248,.00006599,42.9988,77.9853,291.9760,68.1022,0,U,64136,999,6495,.25428362E-3,.6744E-4,0
STARLINK-34230,2025-111Q,2026-07-16T16:58:59.903328,16.14297195,.0022608,42.9733,13.8806,305.0830,54.7933,0,U,64137,999,6582,.48998E-2,.4405836E-1,.66373E-1
STARLINK-34129,2025-111R,2026-07-16T15:35:31.030080,15.27595855,.00019617,43.0019,69.7885,268.1436,91.9191,0,U,64138,999,6523,.6668813E-3,.18143E-3,0
STARLINK-34212,2025-111S,2026-07-16T08:36:18.592992,15.27577644,.00003814,42.9982,71.0445,342.4728,17.6110,0,U,64139,999,6514,.26849772E-3,.7133E-4,0
STARLINK-34149,2025-111T,2026-07-16T08:51:06.304608,15.27577671,.00014638,43.0035,71.1177,264.2274,95.8410,0,U,64140,999,6514,.14324818E-3,.3681E-4,0
STARLINK-34054,2025-111U,2026-07-16T08:47:24.956448,15.27585396,.00002469,43.0023,71.0963,300.1516,59.9311,0,U,64141,999,6514,.43795017E-3,.11811E-3,0
STARLINK-34195,2025-111V,2026-07-16T00:39:58.124448,15.27593788,.0001126,43.0023,72.8589,288.9718,71.1012,0,U,64142,999,6509,.52364655E-3,.14181E-3,0
STARLINK-34133,2025-111W,2026-07-16T08:25:11.801856,15.27584352,.00013441,43.0030,70.9824,271.5668,88.5029,0,U,64143,999,6514,.17593767E-3,.4583E-4,0
STARLINK-34181,2025-111X,2026-07-16T15:13:17.261184,15.27592798,.00008212,43.0011,69.6716,305.2559,54.8215,0,U,64144,999,6518,.42627004E-3,.11491E-3,0
STARLINK-34186,2025-111Y,2026-07-16T09:09:36.549792,15.27578888,.00015355,43.0005,71.2149,253.9724,106.0958,0,U,64145,999,6514,.12827308E-3,.3269E-4,0
STARLINK-34314,2025-112A,2026-07-16T14:21:14.823936,15.05659190,.0001811,97.2839,246.4240,110.0600,250.0823,0,U,64146,999,6270,.15774829E-3,.2221E-4,0
STARLINK-33926,2025-112B,2026-07-16T02:35:28.639968,15.05656060,.00023663,97.2826,246.0194,129.6034,230.5403,0,U,64147,999,6263,.21299762E-3,.3019E-4,0
STARLINK-34213,2025-112C,2026-07-16T14:33:12.206592,15.05660264,.00014246,97.2846,246.4132,128.2660,231.8696,0,U,64148,999,6270,.16966522E-3,.2393E-4,0
STARLINK-33924,2025-112D,2026-07-16T13:09:28.032768,15.05658767,.00012992,97.2823,246.3385,104.2073,255.9299,0,U,64149,999,6269,.11141782E-3,.1552E-4,0
STARLINK-34209,2025-112E,2026-07-16T13:33:24.304896,15.05661076,.00026182,97.2814,246.4679,108.0094,252.1420,0,U,64150,999,6270,.17925493E-3,.2532E-4,0
STARLINK-34338,2025-112F,2026-07-16T13:21:26.415072,15.05665833,.00009398,97.2830,246.4811,90.7821,269.3515,0,U,64151,999,6270,.3286118E-3,.469E-4,0
STARLINK-34348,2025-112G,2026-07-16T14:09:17.060256,15.05658622,.00018066,97.2832,246.4376,110.0154,250.1268,0,U,64152,999,6270,.95913783E-4,.1328E-4,0
STARLINK-34345,2025-112H,2026-07-16T09:10:13.561824,15.05657864,.00015105,97.2824,246.2600,123.8022,236.3349,0,U,64153,999,6267,.11082549E-3,.1543E-4,0
STARLINK-33945,2025-112J,2026-07-16T10:34:48.268416,15.05663492,.00006157,97.2826,254.8148,116.6775,243.4515,0,U,64154,999,6323,.24794857E-3,.3524E-4,0
STARLINK-34346,2025-112K,2026-07-16T13:37:23.939616,15.05659397,.00013806,97.2816,246.4723,118.3151,241.8216,0,U,64155,999,6270,.23523087E-3,.334E-4,0
STARLINK-34277,2025-112L,2026-07-16T09:38:07.855584,15.05663436,.00021487,97.2842,246.2412,105.2889,254.8576,0,U,64156,999,6267,.20752155E-3,.294E-4,0
STARLINK-34166,2025-112N,2026-07-16T03:39:16.176384,15.05646293,.00020033,97.2825,245.9642,122.0306,238.1116,0,U,64158,999,6263,.2705541E-3,.3849E-4,0
STARLINK-34344,2025-112P,2026-07-16T14:37:11.720352,15.05657737,.00019205,97.2830,246.4162,119.4319,240.7101,0,U,64159,999,6270,.13921265E-3,.1953E-4,0
STARLINK-34339,2025-112Q,2026-07-16T14:13:17.012064,15.05649110,.00021987,97.2835,246.4422,110.5295,249.6169,0,U,64160,999,6270,-.37328589E-4,-.595E-5,0
STARLINK-34341,2025-112R,2026-07-16T09:02:15.032832,15.05660801,.00019773,97.2817,246.2755,112.8332,247.3105,0,U,64161,999,6267,.12029772E-3,.168E-4,0
STARLINK-34317,2025-112S,2026-07-16T02:15:31.480704,15.05661711,.00010601,97.2824,246.0453,134.6355,225.4960,0,U,64162,999,6263,.90869401E-4,.1255E-4,0
