STARLINK-11718 [DTC]    
1 64132U 25111K   26197.62532951  .00102523  00000+0  79231-3 0  9991
2 64132  43.0027 276.9960 0002398 269.2577  90.8015 15.70849172 66967
STARLINK-11716 [DTC]    
1 64133U 25111L   26197.23760961  .00100632  00000+0  77508-3 0  9997
2 64133  43.0000 279.2481 0001197 144.1806 215.9142 15.70938345 66901
STARLINK-11714 [DTC]    
1 64134U 25111M   26197.57132655  .00103045  00000+0  79687-3 0  9999
2 64134  42.9991 276.5616 0001962 282.9933  77.0715 15.70832179 66913
STARLINK-11712 [DTC]    
1 64135U 25111N   26197.56614785  .00119275  00000+0  91994-3 0  9995
2 64135  42.9993 277.4144 0001433 274.5519  85.5185 15.70834966 66902
STARLINK-34254          
1 64136U 25111P   26196.10592368  .00006744  00000+0  25428-3 0  9992
2 64136  42.9988  77.9853 0000659 291.9760  68.1022 15.27591248 64952
STARLINK-34230          
1 64137U 25111Q   26197.70763777  .04405836  66373-1  48998-2 0  9996
2 64137  42.9733  13.8806 0022608 305.0830  54.7933 16.14297195 65821
STARLINK-34129          
1 64138U 25111R   26197.64966470  .00018143  00000+0  66688-3 0  9992
2 64138  43.0019  69.7885 0001961 268.1436  91.9191 15.27595855 65239
STARLINK-34212          
1 64139U 25111S   26197.35854853  .00007133  00000+0  26850-3 0  9996
2 64139  42.9982  71.0445 0000381 342.4728  17.6110 15.27577644 65142
STARLINK-34149          
1 64140U 25111T   26197.36882297  .00003681  00000+0  14325-3 0  9990
2 64140  43.0035  71.1177 0001463 264.2274  95.8410 15.27577671 65148
STARLINK-34054          
1 64141U 25111U   26197.36626107  .00011811  00000+0  43795-3 0  9994
2 64141  43.0023  71.0963 0000246 300.1516  59.9311 15.27585396 65149
STARLINK-34195          
1 64142U 25111V   26197.02775607  .00014181  00000+0  52365-3 0  9994
2 64142  43.0023  72.8589 0001126 288.9718  71.1012 15.27593788 65090
STARLINK-34133          
1 64143U 25111W   26197.35083104  .00004583  00000+0  17594-3 0  9995
2 64143  43.0030  70.9824 0001344 271.5668  88.5029 15.27584352 65147
STARLINK-34181          
1 64144U 25111X   26197.63422756  .00011491  00000+0  42627-3 0  9998
2 64144  43.0011  69.6716 0000821 305.2559  54.8215 15.27592798 65185
STARLINK-34186          
1 64145U 25111Y   26197.38167303  .00003269  00000+0  12827-3 0  9998
2 64145  43.0005  71.2149 0001535 253.9724 106.0958 15.27578888 65148
STARLINK-34314          
1 64146U 25112A   26197.59808824  .00002221  00000+0  15775-3 0  9995
2 64146  97.2839 246.4240 0001811 110.0600 250.0823 15.05659190 62708
STARLINK-33926          
1 64147U 25112B   26197.10797037  .00003019  00000+0  21300-3 0  9993
2 64147  97.2826 246.0194 0002366 129.6034 230.5403 15.05656060 62634
STARLINK-34213          
1 64148U 25112C   26197.60639128  .00002393  00000+0  16967-3 0  9992
2 64148  97.2846 246.4132 0001424 128.2660 231.8696 15.05660264 62704
STARLINK-33924          
1 64149U 25112D   26197.54824112  .00001552  00000+0  11142-3 0  9991
2 64149  97.2823 246.3385 0001299 104.2073 255.9299 15.05658767 62690
STARLINK-34209          
1 64150U 25112E   26197.56486464  .00002532  00000+0  17925-3 0  9993
2 64150  97.2814 246.4679 0002618 108.0094 252.1420 15.05661076 62704
STARLINK-34338          
1 64151U 25112F   26197.55655573  .00004690  00000+0  32861-3 0  9995
2 64151  97.2830 246.4811 0000939  90.7821 269.3515 15.05665833 62700
STARLINK-34348          
1 64152U 25112G   26197.58978079  .00001328  00000+0  95914-4 0  9992
2 64152  97.2832 246.4376 0001806 110.0154 250.1268 15.05658622 62709
STARLINK-34345          
1 64153U 25112H   26197.38210141  .00001543  00000+0  11083-3 0  9993
2 64153  97.2824 246.2600 0001510 123.8022 236.3349 15.05657864 62676
STARLINK-33945          
1 64154U 25112J   26197.44083644  .00003524  00000+0  24795-3 0  9992
2 64154  97.2826 254.8148 0000615 116.6775 243.4515 15.05663492 63232
STARLINK-34346          
1 64155U 25112K   26197.56763819  .00003340  00000+0  23523-3 0  9999
2 64155  97.2816 246.4723 0001380 118.3151 241.8216 15.05659397 62705
STARLINK-34277          
1 64156U 25112L   26197.40147981  .00002940  00000+0  20752-3 0  9995
2 64156  97.2842 246.2412 0002148 105.2889 254.8576 15.05663436 62672
STARLINK-34166          
1 64158U 25112N   26197.15227056  .00003849  00000+0  27055-3 0  9993
2 64158  97.2825 245.9642 0002003 122.0306 238.1116 15.05646293 62630
STARLINK-34344          
1 64159U 25112P   26197.60916343  .00001953  00000+0  13921-3 0  9999
2 64159  97.2830 246.4162 0001920 119.4319 240.7101 15.05657737 62707
STARLINK-34339          
1 64160U 25112Q   26197.59255801 -.00000595  00000+0 -37329-4 0  9996
2 64160  97.2835 246.4422 0002198 110.5295 249.6169 15.05649110 62704
STARLINK-34341          
1 64161U 25112R   26197.37656288  .00001680  00000+0  12030-3 0  9992
2 64161  97.2817 246.2755 0001977 112.8332 247.3105 15.05660801 62674
STARLINK-34317          
1 64162U 25112S   26197.09411436  .00001255  00000+0  90869-4 0  9991
2 64162  97.2824 246.0453 0001060 134.6355 225.4960 15.05661711 62639
